start=new Date('2021-12-16T00:00:00.000Z').valueOf();
sats=[{"FILE":"3241542","BSTAR":"-0.00000758680000","COUNTRY_CODE":"US","LAUNCH_DATE":"2021-03-24","EPOCH":"2021-12-15T14:17:37.217760","RCS_SIZE":"LARGE","OBJECT_TYPE":"PAYLOAD","GP_ID":"191799427","OBJECT_NAME":"STARLINK-2282","NORAD_CAT_ID":"48018","PERIOD":"95.592","MEAN_MOTION_DOT":"-0.00000394","INCLINATION":"53.0557","CLASSIFICATION_TYPE":"U","EPHEMERIS_TYPE":"0","REF_FRAME":"TEME","CENTER_NAME":"EARTH","ARG_OF_PERICENTER":"70.9371","MEAN_ELEMENT_THEORY":"SGP4","DECAY_DATE":null,"ECCENTRICITY":"0.00013690","MEAN_MOTION_DDOT":"0.0000000000000","SITE":"AFETR","SEMIMAJOR_AXIS":"6925.358","REV_AT_EPOCH":"4189","TLE_LINE2":"2 48018  53.0557  57.8079 0001369  70.9371 289.1766 15.06396971 41898","ELEMENT_SET_NO":"999","OBJECT_ID":"2021-024AT","TLE_LINE1":"1 48018U 21024AT  21349.59556965 -.00000394  00000-0 -75868-5 0  9996","MEAN_ANOMALY":"289.1766","MEAN_MOTION":"15.06396971","APOAPSIS":"548.171","PERIAPSIS":"546.275","TIME_SYSTEM":"UTC","RA_OF_ASC_NODE":"57.8079"},{"MEAN_MOTION_DDOT":"0.0000000000000","MEAN_ELEMENT_THEORY":"SGP4","DECAY_DATE":null,"ECCENTRICITY":"0.00012610","ARG_OF_PERICENTER":"80.3747","SEMIMAJOR_AXIS":"6925.357","SITE":"AFETR","OBJECT_ID":"2021-024AU","TLE_LINE2":"2 48019  53.0563  47.9632 0001261  80.3747 279.7384 15.06397173 41508","ELEMENT_SET_NO":"999","REV_AT_EPOCH":"4150","TIME_SYSTEM":"UTC","RA_OF_ASC_NODE":"47.9632","PERIAPSIS":"546.349","APOAPSIS":"548.096","TLE_LINE1":"1 48019U 21024AU  21349.56426397  .00002343  00000-0  17613-3 0  9995","MEAN_ANOMALY":"279.7384","MEAN_MOTION":"15.06397173","RCS_SIZE":"LARGE","OBJECT_TYPE":"PAYLOAD","LAUNCH_DATE":"2021-03-24","EPOCH":"2021-12-15T13:32:32.407008","BSTAR":"0.00017613000000","FILE":"3241295","COUNTRY_CODE":"US","GP_ID":"191771216","EPHEMERIS_TYPE":"0","CLASSIFICATION_TYPE":"U","INCLINATION":"53.0563","OBJECT_NAME":"STARLINK-2285","NORAD_CAT_ID":"48019","PERIOD":"95.592","MEAN_MOTION_DOT":"0.00002343","CENTER_NAME":"EARTH","REF_FRAME":"TEME"},{"PERIAPSIS":"546.214","RA_OF_ASC_NODE":"1.3602","TIME_SYSTEM":"UTC","MEAN_ANOMALY":"26.0816","TLE_LINE1":"1 48020U 21024AV  21349.91668981  .00044261  00000-0  29747-2 0  9998","MEAN_MOTION":"15.06362726","APOAPSIS":"548.441","TLE_LINE2":"2 48020  53.0545   1.3602 0001608  58.9466  26.0816 15.06362726  3591","ELEMENT_SET_NO":"999","OBJECT_ID":"2021-024AV","REV_AT_EPOCH":"359","SITE":"AFETR","SEMIMAJOR_AXIS":"6925.463","MEAN_ELEMENT_THEORY":"SGP4","DECAY_DATE":null,"ECCENTRICITY":"0.00016080","MEAN_MOTION_DDOT":"0.0000000000000","ARG_OF_PERICENTER":"58.9466","CENTER_NAME":"EARTH","REF_FRAME":"TEME","CLASSIFICATION_TYPE":"U","EPHEMERIS_TYPE":"0","OBJECT_NAME":"STARLINK-2294","MEAN_MOTION_DOT":"0.00044261","PERIOD":"95.595","NORAD_CAT_ID":"48020","INCLINATION":"53.0545","GP_ID":"191797926","RCS_SIZE":"LARGE","OBJECT_TYPE":"PAYLOAD","FILE":"3241542","BSTAR":"0.00297470000000","COUNTRY_CODE":"US","LAUNCH_DATE":"2021-03-24","EPOCH":"2021-12-15T22:00:01.999584"},{"GP_ID":"191799177","FILE":"3241542","BSTAR":"-0.00001857900000","COUNTRY_CODE":"US","LAUNCH_DATE":"2021-03-24","EPOCH":"2021-12-15T18:03:14.647104","RCS_SIZE":"LARGE","OBJECT_TYPE":"PAYLOAD","REF_FRAME":"TEME","CENTER_NAME":"EARTH","OBJECT_NAME":"STARLINK-2301","MEAN_MOTION_DOT":"-0.00000558","PERIOD":"95.592","NORAD_CAT_ID":"48021","INCLINATION":"53.0579","CLASSIFICATION_TYPE":"U","EPHEMERIS_TYPE":"0","SITE":"AFETR","SEMIMAJOR_AXIS":"6925.351","ARG_OF_PERICENTER":"51.5179","MEAN_ELEMENT_THEORY":"SGP4","DECAY_DATE":null,"ECCENTRICITY":"0.00015810","MEAN_MOTION_DDOT":"0.0000000000000","TLE_LINE1":"1 48021U 21024AW  21349.75225286 -.00000558  00000-0 -18579-4 0  9994","MEAN_ANOMALY":"308.5952","MEAN_MOTION":"15.06399186","APOAPSIS":"548.311","PERIAPSIS":"546.121","TIME_SYSTEM":"UTC","RA_OF_ASC_NODE":"7.1035","REV_AT_EPOCH":"4256","TLE_LINE2":"2 48021  53.0579   7.1035 0001581  51.5179 308.5952 15.06399186 42562","ELEMENT_SET_NO":"999","OBJECT_ID":"2021-024AW"},{"CENTER_NAME":"EARTH","REF_FRAME":"TEME","EPHEMERIS_TYPE":"0","CLASSIFICATION_TYPE":"U","INCLINATION":"53.0555","PERIOD":"95.592","MEAN_MOTION_DOT":"-0.00000155","NORAD_CAT_ID":"48022","OBJECT_NAME":"STARLINK-2298","GP_ID":"191798928","OBJECT_TYPE":"PAYLOAD","RCS_SIZE":"LARGE","EPOCH":"2021-12-15T14:53:26.748672","LAUNCH_DATE":"2021-03-24","COUNTRY_CODE":"US","FILE":"3241542","BSTAR":"0.00000849680000","TIME_SYSTEM":"UTC","RA_OF_ASC_NODE":"67.7073","PERIAPSIS":"546.521","APOAPSIS":"547.928","MEAN_MOTION":"15.06396342","MEAN_ANOMALY":"285.1928","TLE_LINE1":"1 48022U 21024AX  21349.62044848 -.00000155  00000-0  84968-5 0  9992","OBJECT_ID":"2021-024AX","TLE_LINE2":"2 48022  53.0555  67.7073 0001016  74.9173 285.1928 15.06396342 41751","ELEMENT_SET_NO":"999","REV_AT_EPOCH":"4175","SEMIMAJOR_AXIS":"6925.360","SITE":"AFETR","MEAN_MOTION_DDOT":"0.0000000000000","DECAY_DATE":null,"ECCENTRICITY":"0.00010160","MEAN_ELEMENT_THEORY":"SGP4","ARG_OF_PERICENTER":"74.9173"},{"MEAN_ANOMALY":"284.7810","TLE_LINE1":"1 48023U 21024AY  21349.63614120 -.00000473  00000-0 -12859-4 0  9993","MEAN_MOTION":"15.06392959","APOAPSIS":"548.104","PERIAPSIS":"546.366","RA_OF_ASC_NODE":"67.6249","TIME_SYSTEM":"UTC","REV_AT_EPOCH":"4175","ELEMENT_SET_NO":"999","TLE_LINE2":"2 48023  53.0562  67.6249 0001255  75.3318 284.7810 15.06392959 41750","OBJECT_ID":"2021-024AY","SITE":"AFETR","SEMIMAJOR_AXIS":"6925.370","ARG_OF_PERICENTER":"75.3318","MEAN_ELEMENT_THEORY":"SGP4","DECAY_DATE":null,"ECCENTRICITY":"0.00012550","MEAN_MOTION_DDOT":"0.0000000000000","REF_FRAME":"TEME","CENTER_NAME":"EARTH","OBJECT_NAME":"STARLINK-2292","PERIOD":"95.593","MEAN_MOTION_DOT":"-0.00000473","NORAD_CAT_ID":"48023","INCLINATION":"53.0562","CLASSIFICATION_TYPE":"U","EPHEMERIS_TYPE":"0","GP_ID":"191798176","BSTAR":"-0.00001285900000","FILE":"3241542","COUNTRY_CODE":"US","LAUNCH_DATE":"2021-03-24","EPOCH":"2021-12-15T15:16:02.599680","RCS_SIZE":"LARGE","OBJECT_TYPE":"PAYLOAD"},{"ARG_OF_PERICENTER":"68.1422","MEAN_MOTION_DDOT":"0.0000117970000","MEAN_ELEMENT_THEORY":"SGP4","ECCENTRICITY":"0.00012480","DECAY_DATE":null,"SITE":"AFETR","SEMIMAJOR_AXIS":"6677.574","REV_AT_EPOCH":"371","OBJECT_ID":"2021-024AZ","ELEMENT_SET_NO":"999","TLE_LINE2":"2 48024  53.0404 317.1600 0001248  68.1422 132.0073 15.91016641  3713","APOAPSIS":"300.272","MEAN_ANOMALY":"132.0073","TLE_LINE1":"1 48024U 21024AZ  21349.91668981 -.00049968  11797-4 -14371-3 0  9990","MEAN_MOTION":"15.91016641","RA_OF_ASC_NODE":"317.1600","TIME_SYSTEM":"UTC","PERIAPSIS":"298.605","LAUNCH_DATE":"2021-03-24","EPOCH":"2021-12-15T22:00:01.999584","FILE":"3241542","BSTAR":"-0.00014371000000","COUNTRY_CODE":"US","RCS_SIZE":"LARGE","OBJECT_TYPE":"PAYLOAD","GP_ID":"191798426","INCLINATION":"53.0404","OBJECT_NAME":"STARLINK-2302","MEAN_MOTION_DOT":"-0.00049968","PERIOD":"90.508","NORAD_CAT_ID":"48024","EPHEMERIS_TYPE":"0","CLASSIFICATION_TYPE":"U","REF_FRAME":"TEME","CENTER_NAME":"EARTH"},{"GP_ID":"191798678","RCS_SIZE":"LARGE","OBJECT_TYPE":"PAYLOAD","BSTAR":"0.00052637000000","FILE":"3241542","COUNTRY_CODE":"US","LAUNCH_DATE":"2021-03-24","EPOCH":"2021-12-15T22:00:01.999584","CENTER_NAME":"EARTH","REF_FRAME":"TEME","CLASSIFICATION_TYPE":"U","EPHEMERIS_TYPE":"0","OBJECT_NAME":"STARLINK-2318","PERIOD":"90.827","NORAD_CAT_ID":"48025","MEAN_MOTION_DOT":"0.00130079","INCLINATION":"53.0413","SITE":"AFETR","SEMIMAJOR_AXIS":"6693.249","MEAN_ELEMENT_THEORY":"SGP4","ECCENTRICITY":"0.00042550","DECAY_DATE":null,"MEAN_MOTION_DDOT":"0.0000000000000","ARG_OF_PERICENTER":"116.2293","PERIAPSIS":"312.266","TIME_SYSTEM":"UTC","RA_OF_ASC_NODE":"317.8322","MEAN_ANOMALY":"116.3295","TLE_LINE1":"1 48025U 21024BA  21349.91668981  .00130079  00000-0  52637-3 0  9991","MEAN_MOTION":"15.85430906","APOAPSIS":"317.962","TLE_LINE2":"2 48025  53.0413 317.8322 0004255 116.2293 116.3295 15.85430906  3701","ELEMENT_SET_NO":"999","OBJECT_ID":"2021-024BA","REV_AT_EPOCH":"370"},{"REF_FRAME":"TEME","CENTER_NAME":"EARTH","INCLINATION":"53.0428","PERIOD":"95.593","MEAN_MOTION_DOT":"-0.00000478","NORAD_CAT_ID":"48026","OBJECT_NAME":"STARLINK-2278","EPHEMERIS_TYPE":"0","CLASSIFICATION_TYPE":"U","GP_ID":"191764345","EPOCH":"2021-12-15T11:35:06.432576","LAUNCH_DATE":"2021-03-24","COUNTRY_CODE":"US","FILE":"3241011","BSTAR":"-0.00001323200000","OBJECT_TYPE":"PAYLOAD","RCS_SIZE":"LARGE","APOAPSIS":"547.988","MEAN_MOTION":"15.06392490","TLE_LINE1":"1 48026U 21024BB  21349.48271334 -.00000478  00000-0 -13232-4 0  9996","MEAN_ANOMALY":"280.8963","TIME_SYSTEM":"UTC","RA_OF_ASC_NODE":"73.3715","PERIAPSIS":"546.485","REV_AT_EPOCH":"4160","OBJECT_ID":"2021-024BB","TLE_LINE2":"2 48026  53.0428  73.3715 0001085  79.2148 280.8963 15.06392490 41601","ELEMENT_SET_NO":"999","SEMIMAJOR_AXIS":"6925.372","SITE":"AFETR","ARG_OF_PERICENTER":"79.2148","MEAN_MOTION_DDOT":"0.0000000000000","ECCENTRICITY":"0.00010850","DECAY_DATE":null,"MEAN_ELEMENT_THEORY":"SGP4"},{"ARG_OF_PERICENTER":"69.0506","MEAN_MOTION_DDOT":"0.0000000000000","DECAY_DATE":null,"ECCENTRICITY":"0.00011800","MEAN_ELEMENT_THEORY":"SGP4","SEMIMAJOR_AXIS":"6925.329","SITE":"AFETR","REV_AT_EPOCH":"4196","OBJECT_ID":"2021-024BC","ELEMENT_SET_NO":"999","TLE_LINE2":"2 48027  53.0566  47.9042 0001180  69.0506 291.0610 15.06406431 41969","APOAPSIS":"548.011","MEAN_MOTION":"15.06406431","TLE_LINE1":"1 48027U 21024BC  21349.57531209  .00001528  00000-0  12142-3 0  9990","MEAN_ANOMALY":"291.0610","RA_OF_ASC_NODE":"47.9042","TIME_SYSTEM":"UTC","PERIAPSIS":"546.377","EPOCH":"2021-12-15T13:48:26.964576","LAUNCH_DATE":"2021-03-24","FILE":"3241011","BSTAR":"0.00012142000000","COUNTRY_CODE":"US","OBJECT_TYPE":"PAYLOAD","RCS_SIZE":"LARGE","GP_ID":"191765096","INCLINATION":"53.0566","PERIOD":"95.592","NORAD_CAT_ID":"48027","MEAN_MOTION_DOT":"0.00001528","OBJECT_NAME":"STARLINK-2300","EPHEMERIS_TYPE":"0","CLASSIFICATION_TYPE":"U","REF_FRAME":"TEME","CENTER_NAME":"EARTH"}];
